SOYUZ-MS 28             
1 66664U 25275A   26189.73419088  .00005258  00000+0  10370-3 0  9998
2 66664  51.6304 193.4497 0006669 272.1743  87.8481 15.48947664645127
CREW DRAGON 12          
1 67796U 26031A   26189.73419088  .00005258  00000+0  10370-3 0  9996
2 67796  51.6304 193.4497 0006669 272.1743  87.8481 15.48947664627843
SHENZHOU-23 (SZ-23)     
1 69180U 26113A   26189.67677280  .00000230  00000+0  72520-5 0  9991
2 69180  41.4682 191.3403 0002809 278.7724  81.2796 15.58020355296765
