{"fetched_at":"2026-07-09T07:59:51.791Z","source":"https://celestrak.org/NORAD/elements/gp.php?GROUP=stations&FORMAT=JSON","constellation":"crewed-vehicles","records":[{"OBJECT_NAME":"SOYUZ-MS 28","OBJECT_ID":"2025-275A","EPOCH":"2026-07-08T17:37:14.092032","CLASSIFICATION_TYPE":"U","MEAN_MOTION":15.48947664,"ECCENTRICITY":0.00066697,"INCLINATION":51.6304,"RA_OF_ASC_NODE":193.4497,"ARG_OF_PERICENTER":272.1743,"MEAN_ANOMALY":87.8481,"EPHEMERIS_TYPE":0,"NORAD_CAT_ID":66664,"ELEMENT_SET_NO":999,"REV_AT_EPOCH":64512,"BSTAR":0.00010370434,"MEAN_MOTION_DOT":0.00005258,"MEAN_MOTION_DDOT":0},{"OBJECT_NAME":"CREW DRAGON 12","OBJECT_ID":"2026-031A","EPOCH":"2026-07-08T17:37:14.092032","CLASSIFICATION_TYPE":"U","MEAN_MOTION":15.48947664,"ECCENTRICITY":0.00066697,"INCLINATION":51.6304,"RA_OF_ASC_NODE":193.4497,"ARG_OF_PERICENTER":272.1743,"MEAN_ANOMALY":87.8481,"EPHEMERIS_TYPE":0,"NORAD_CAT_ID":67796,"ELEMENT_SET_NO":999,"REV_AT_EPOCH":62784,"BSTAR":0.00010370434,"MEAN_MOTION_DOT":0.00005258,"MEAN_MOTION_DDOT":0},{"OBJECT_NAME":"SHENZHOU-23 (SZ-23)","OBJECT_ID":"2026-113A","EPOCH":"2026-07-08T16:14:33.169920","CLASSIFICATION_TYPE":"U","MEAN_MOTION":15.58020355,"ECCENTRICITY":0.00028092,"INCLINATION":41.4682,"RA_OF_ASC_NODE":191.3403,"ARG_OF_PERICENTER":278.7724,"MEAN_ANOMALY":81.2796,"EPHEMERIS_TYPE":0,"NORAD_CAT_ID":69180,"ELEMENT_SET_NO":999,"REV_AT_EPOCH":29676,"BSTAR":0.000007252043,"MEAN_MOTION_DOT":0.0000023,"MEAN_MOTION_DDOT":0}]}
